{
  "type": "FeatureCollection",
  "features": [
    {
      "type": "Feature",
      "properties": {
        "norad_id": 41859,
        "name": "GSAT0207 (GALILEO 15)",
        "group": "gnss",
        "lat": 54.36869958424473,
        "lon": -179.22803056947424,
        "alt_km": 23218.563672067,
        "timestamp": "2025-12-06T11:28:11.306238+00:00",
        "meta_object_name": "GSAT0207 (GALILEO 15)",
        "meta_object_id": "2016-069A",
        "meta_epoch": "2025-12-03T23:59:33.819072",
        "meta_mean_motion": 1.70474248,
        "meta_eccentricity": 0.0002136,
        "meta_inclination": 55.3774,
        "meta_ra_of_asc_node": 106.4923,
        "meta_arg_of_pericenter": 325.6107,
        "meta_mean_anomaly": 34.3288,
        "meta_ephemeris_type": 0,
        "meta_classification_type": "U",
        "meta_norad_cat_id": 41859,
        "meta_element_set_no": 999,
        "meta_rev_at_epoch": 5607,
        "meta_bstar": 0,
        "meta_mean_motion_dot": 1.5e-07,
        "meta_mean_motion_ddot": 0,
        "tle_line1": "1 41859U 16069A   25337.99969698  .00000015  00000+0  00000+0 0  9998",
        "tle_line2": "2 41859  55.3774 106.4923 0002136 325.6107  34.3288  1.70474248 56074"
      },
      "geometry": {
        "type": "Point",
        "coordinates": [
          -179.22803056947424,
          54.36869958424473
        ]
      }
    },
    {
      "type": "Feature",
      "properties": {
        "norad_id": 41860,
        "name": "GSAT0212 (GALILEO 16)",
        "group": "gnss",
        "lat": 7.543416266066069,
        "lon": -78.84123007766652,
        "alt_km": 23226.23870323774,
        "timestamp": "2025-12-06T11:28:11.306250+00:00",
        "meta_object_name": "GSAT0212 (GALILEO 16)",
        "meta_object_id": "2016-069B",
        "meta_epoch": "2025-12-02T16:19:30.905184",
        "meta_mean_motion": 1.70474418,
        "meta_eccentricity": 0.00022458,
        "meta_inclination": 55.3738,
        "meta_ra_of_asc_node": 106.5243,
        "meta_arg_of_pericenter": 34.2432,
        "meta_mean_anomaly": 325.7313,
        "meta_ephemeris_type": 0,
        "meta_classification_type": "U",
        "meta_norad_cat_id": 41860,
        "meta_element_set_no": 999,
        "meta_rev_at_epoch": 5630,
        "meta_bstar": 0,
        "meta_mean_motion_dot": 2.7e-07,
        "meta_mean_motion_ddot": 0,
        "tle_line1": "1 41860U 16069B   25336.68021881  .00000027  00000+0  00000+0 0  9991",
        "tle_line2": "2 41860  55.3738 106.5243 0002245  34.2432 325.7313  1.70474418 56308"
      },
      "geometry": {
        "type": "Point",
        "coordinates": [
          -78.84123007766652,
          7.543416266066069
        ]
      }
    },
    {
      "type": "Feature",
      "properties": {
        "norad_id": 41861,
        "name": "GSAT0213 (GALILEO 17)",
        "group": "gnss",
        "lat": -42.29139333141702,
        "lon": 67.51733688739687,
        "alt_km": 23221.180632271095,
        "timestamp": "2025-12-06T11:28:11.306260+00:00",
        "meta_object_name": "GSAT0213 (GALILEO 17)",
        "meta_object_id": "2016-069C",
        "meta_epoch": "2025-12-04T19:22:49.962144",
        "meta_mean_motion": 1.70474712,
        "meta_eccentricity": 0.00021375,
        "meta_inclination": 55.3775,
        "meta_ra_of_asc_node": 106.4729,
        "meta_arg_of_pericenter": 283.7545,
        "meta_mean_anomaly": 76.173,
        "meta_ephemeris_type": 0,
        "meta_classification_type": "U",
        "meta_norad_cat_id": 41861,
        "meta_element_set_no": 999,
        "meta_rev_at_epoch": 5620,
        "meta_bstar": 0,
        "meta_mean_motion_dot": 1e-07,
        "meta_mean_motion_ddot": 0,
        "tle_line1": "1 41861U 16069C   25338.80752271  .00000010  00000+0  00000+0 0  9994",
        "tle_line2": "2 41861  55.3775 106.4729 0002137 283.7545  76.1730  1.70474712 56200"
      },
      "geometry": {
        "type": "Point",
        "coordinates": [
          67.51733688739687,
          -42.29139333141702
        ]
      }
    },
    {
      "type": "Feature",
      "properties": {
        "norad_id": 41862,
        "name": "GSAT0214 (GALILEO 18)",
        "group": "gnss",
        "lat": -28.60474566288975,
        "lon": -51.48312683236136,
        "alt_km": 23224.932443746613,
        "timestamp": "2025-12-06T11:28:11.306275+00:00",
        "meta_object_name": "GSAT0214 (GALILEO 18)",
        "meta_object_id": "2016-069D",
        "meta_epoch": "2025-12-05T12:57:44.455104",
        "meta_mean_motion": 1.70474584,
        "meta_eccentricity": 0.00011763,
        "meta_inclination": 55.3762,
        "meta_ra_of_asc_node": 106.4455,
        "meta_arg_of_pericenter": 291.0864,
        "meta_mean_anomaly": 68.8522,
        "meta_ephemeris_type": 0,
        "meta_classification_type": "U",
        "meta_norad_cat_id": 41862,
        "meta_element_set_no": 999,
        "meta_rev_at_epoch": 5634,
        "meta_bstar": 0,
        "meta_mean_motion_dot": 8e-08,
        "meta_mean_motion_ddot": 0,
        "tle_line1": "1 41862U 16069D   25339.54009786  .00000008  00000+0  00000+0 0  9990",
        "tle_line2": "2 41862  55.3762 106.4455 0001176 291.0864  68.8522  1.70474584 56340"
      },
      "geometry": {
        "type": "Point",
        "coordinates": [
          -51.48312683236136,
          -28.60474566288975
        ]
      }
    },
    {
      "type": "Feature",
      "properties": {
        "norad_id": 42709,
        "name": "SES-15 (WAAS/PRN 133)",
        "group": "gnss",
        "lat": 0.0300239617282046,
        "lon": 118.37179109524726,
        "alt_km": 35789.169373469704,
        "timestamp": "2025-12-06T11:28:11.306288+00:00",
        "meta_object_name": "SES-15 (WAAS/PRN 133)",
        "meta_object_id": "2017-026A",
        "meta_epoch": "2025-12-05T18:13:02.510112",
        "meta_mean_motion": 1.00266317,
        "meta_eccentricity": 4.24e-05,
        "meta_inclination": 0.0201,
        "meta_ra_of_asc_node": 343.1226,
        "meta_arg_of_pericenter": 289.5138,
        "meta_mean_anomaly": 306.2682,
        "meta_ephemeris_type": 0,
        "meta_classification_type": "U",
        "meta_norad_cat_id": 42709,
        "meta_element_set_no": 999,
        "meta_rev_at_epoch": 549,
        "meta_bstar": 0,
        "meta_mean_motion_dot": 7e-07,
        "meta_mean_motion_ddot": 0,
        "tle_line1": "1 42709U 17026A   25339.75905683  .00000070  00000+0  00000+0 0  9998",
        "tle_line2": "2 42709   0.0201 343.1226 0000424 289.5138 306.2682  1.00266317  5495"
      },
      "geometry": {
        "type": "Point",
        "coordinates": [
          118.37179109524726,
          0.0300239617282046
        ]
      }
    },
    {
      "type": "Feature",
      "properties": {
        "norad_id": 42738,
        "name": "QZS-2 (QZSS/PRN 194)",
        "group": "gnss",
        "lat": 26.1240327799584,
        "lon": 29.875740572800837,
        "alt_km": 37814.484283727754,
        "timestamp": "2025-12-06T11:28:11.306301+00:00",
        "meta_object_name": "QZS-2 (QZSS/PRN 194)",
        "meta_object_id": "2017-028A",
        "meta_epoch": "2025-12-05T14:20:02.331744",
        "meta_mean_motion": 1.00284944,
        "meta_eccentricity": 0.07587515,
        "meta_inclination": 39.7259,
        "meta_ra_of_asc_node": 245.988,
        "meta_arg_of_pericenter": 269.4031,
        "meta_mean_anomaly": 275.8025,
        "meta_ephemeris_type": 0,
        "meta_classification_type": "U",
        "meta_norad_cat_id": 42738,
        "meta_element_set_no": 999,
        "meta_rev_at_epoch": 568,
        "meta_bstar": 0,
        "meta_mean_motion_dot": -1.57e-06,
        "meta_mean_motion_ddot": 0,
        "tle_line1": "1 42738U 17028A   25339.59724921 -.00000157  00000+0  00000+0 0  9995",
        "tle_line2": "2 42738  39.7259 245.9880 0758751 269.4031 275.8025  1.00284944  5685"
      },
      "geometry": {
        "type": "Point",
        "coordinates": [
          29.875740572800837,
          26.1240327799584
        ]
      }
    },
    {
      "type": "Feature",
      "properties": {
        "norad_id": 42917,
        "name": "QZS-3 (QZSS/PRN 199)",
        "group": "gnss",
        "lat": 0.0426057855399995,
        "lon": 14.593805322913012,
        "alt_km": 35789.35765499796,
        "timestamp": "2025-12-06T11:28:11.306312+00:00",
        "meta_object_name": "QZS-3 (QZSS/PRN 199)",
        "meta_object_id": "2017-048A",
        "meta_epoch": "2025-12-05T21:08:52.212768",
        "meta_mean_motion": 1.00274806,
        "meta_eccentricity": 0.00022179,
        "meta_inclination": 0.0696,
        "meta_ra_of_asc_node": 215.993,
        "meta_arg_of_pericenter": 43.1582,
        "meta_mean_anomaly": 260.0076,
        "meta_ephemeris_type": 0,
        "meta_classification_type": "U",
        "meta_norad_cat_id": 42917,
        "meta_element_set_no": 999,
        "meta_rev_at_epoch": 3032,
        "meta_bstar": 0,
        "meta_mean_motion_dot": -3.38e-06,
        "meta_mean_motion_ddot": 0,
        "tle_line1": "1 42917U 17048A   25339.88115987 -.00000338  00000+0  00000+0 0  9995",
        "tle_line2": "2 42917   0.0696 215.9930 0002217  43.1582 260.0076  1.00274806 30327"
      },
      "geometry": {
        "type": "Point",
        "coordinates": [
          14.593805322913012,
          0.0426057855399995
        ]
      }
    }
  ]
}